{
    "links": {
        "self": "http://www.neowsapp.com/rest/v1/neo/54073366?api_key=iIulBulltgU6a56xZRHN4H3l9WmuAYTsLGpBGhQ2"
    },
    "id": "54073366",
    "neo_reference_id": "54073366",
    "name": "(2020 TV7)",
    "designation": "2020 TV7",
    "nasa_jpl_url": "http://ssd.jpl.nasa.gov/sbdb.cgi?sstr=54073366",
    "absolute_magnitude_h": 26.699,
    "estimated_diameter": {
        "kilometers": {
            "estimated_diameter_min": 0.0121550004,
            "estimated_diameter_max": 0.0271794071
        },
        "meters": {
            "estimated_diameter_min": 12.1550003758,
            "estimated_diameter_max": 27.1794071068
        },
        "miles": {
            "estimated_diameter_min": 0.0075527647,
            "estimated_diameter_max": 0.0168884954
        },
        "feet": {
            "estimated_diameter_min": 39.878611433,
            "estimated_diameter_max": 89.1712860124
        }
    },
    "is_potentially_hazardous_asteroid": false,
    "close_approach_data": [
        {
            "close_approach_date": "2020-10-16",
            "close_approach_date_full": "2020-Oct-16 21:22",
            "epoch_date_close_approach": 1602883320000,
            "relative_velocity": {
                "kilometers_per_second": "12.8271539895",
                "kilometers_per_hour": "46177.7543621827",
                "miles_per_hour": "28693.0607591018"
            },
            "miss_distance": {
                "astronomical": "0.0116276994",
                "lunar": "4.5231750666",
                "kilometers": "1739479.063240278",
                "miles": "1080862.1696527164"
            },
            "orbiting_body": "Earth"
        },
        {
            "close_approach_date": "2062-10-16",
            "close_approach_date_full": "2062-Oct-16 08:58",
            "epoch_date_close_approach": 2928214680000,
            "relative_velocity": {
                "kilometers_per_second": "13.4559749102",
                "kilometers_per_hour": "48441.5096765663",
                "miles_per_hour": "30099.6702765309"
            },
            "miss_distance": {
                "astronomical": "0.0343005164",
                "lunar": "13.3429008796",
                "kilometers": "5131284.193340068",
                "miles": "3188432.1481782184"
            },
            "orbiting_body": "Earth"
        },
        {
            "close_approach_date": "2091-09-25",
            "close_approach_date_full": "2091-Sep-25 03:27",
            "epoch_date_close_approach": 3841529220000,
            "relative_velocity": {
                "kilometers_per_second": "25.7613160333",
                "kilometers_per_hour": "92740.7377198048",
                "miles_per_hour": "57625.487834842"
            },
            "miss_distance": {
                "astronomical": "0.4558054813",
                "lunar": "177.3083322257",
                "kilometers": "68187529.136804831",
                "miles": "42369765.8934594278"
            },
            "orbiting_body": "Earth"
        }
    ],
    "orbital_data": {
        "orbit_id": "1",
        "orbit_determination_date": "2020-10-18 00:12:31",
        "first_observation_date": "2020-10-14",
        "last_observation_date": "2020-10-16",
        "data_arc_in_days": 2,
        "observations_used": 13,
        "orbit_uncertainty": "8",
        "minimum_orbit_intersection": ".00063734",
        "jupiter_tisserand_invariant": "4.944",
        "epoch_osculation": "2459137.5",
        "eccentricity": ".4276512659170002",
        "semi_major_axis": "1.283841305146466",
        "inclination": "7.337434023830883",
        "ascending_node_longitude": "24.16548759701539",
        "orbital_period": "531.3313523237204",
        "perihelion_distance": ".7348049457640463",
        "perihelion_argument": "83.20205770244222",
        "aphelion_distance": "1.832877664528886",
        "perihelion_time": "2459194.923192038134",
        "mean_anomaly": "321.0933007372519",
        "mean_motion": ".6775433040523184",
        "equinox": "J2000",
        "orbit_class": {
            "orbit_class_type": "APO",
            "orbit_class_description": "Near-Earth asteroid orbits which cross the Earth’s orbit similar to that of 1862 Apollo",
            "orbit_class_range": "a (semi-major axis) > 1.0 AU; q (perihelion) < 1.017 AU"
        }
    },
    "is_sentry_object": false
}